NORAD_CAT_ID,OBJECT_NAME,OBJECT_TYPE,EPOCH,MEAN_MOTION,ECCENTRICITY,INCLINATION,RA_OF_ASC_NODE,ARG_OF_PERICENTER,MEAN_ANOMALY,BSTAR,MEAN_MOTION_DOT,MEAN_MOTION_DDOT,TLE_LINE0,TLE_LINE1,TLE_LINE2,SEMIMAJOR_AXIS,PERIOD,APOGEE,PERIGEE,DECAYED
53832.0,STARLINK-4747,PAYLOAD,2023-10-11 02:03:13,15.08829864,0.0001408,53.2178,297.0564,90.3337,269.7816,1.0615e-05,-1.19e-06,0.0,0 STARLINK-4747,1 53832U 22114Q   23284.08557381 -.00000119  00000-0  10615-4 0  9996,2 53832  53.2178 297.0564 0001408  90.3337 269.7816 15.08829864 59352,6917.911,95.438,540.75,538.802,0.0
53832.0,STARLINK-4747,PAYLOAD,2023-10-11 08:24:45,15.08840288,0.0001633,53.2181,295.8694,96.4871,263.6307,1.2723e-05,-8.6e-07,0.0,0 STARLINK-4747,1 53832U 22114Q   23284.35052873 -.00000086  00000-0  12723-4 0  9997,2 53832  53.2181 295.8694 0001633  96.4871 263.6307 15.08840288 59391,6917.88,95.438,540.874,538.615,0.0
53832.0,STARLINK-4747,PAYLOAD,2023-10-12 08:15:32,15.08842258,0.0001531,53.217,291.4058,91.5461,268.5706,0.00016506,2.34e-05,0.0,0 STARLINK-4747,1 53832U 22114Q   23285.34412656  .00002340  00000-0  16506-3 0  9992,2 53832  53.2170 291.4058 0001531  91.5461 268.5706 15.08842258 60087,6917.873,95.437,540.798,538.679,0.0
53832.0,STARLINK-4747,PAYLOAD,2023-10-12 17:47:51,15.08836755,0.0001386,53.2166,289.621,92.0033,268.1118,0.00010998,1.463e-05,0.0,0 STARLINK-4747,1 53832U 22114Q   23285.74157146  .00001463  00000-0  10998-3 0  9990,2 53832  53.2166 289.6210 0001386  92.0033 268.1118 15.08836755 59604,6917.89,95.438,540.714,538.796,0.0
53832.0,STARLINK-4747,PAYLOAD,2023-10-13 09:41:42,15.08847837,0.0001626,53.2172,286.6474,92.1205,267.9974,0.00016755,2.38e-05,0.0,0 STARLINK-4747,1 53832U 22114Q   23286.40396562  .00002380  00000-0  16755-3 0  9997,2 53832  53.2172 286.6474 0001626  92.1205 267.9974 15.08847837 59700,6917.856,95.437,540.846,538.597,0.0
53832.0,STARLINK-4747,PAYLOAD,2023-10-13 17:38:38,15.0884634,0.0001614,53.2175,285.1588,95.5336,264.584,0.00015212,2.134e-05,0.0,0 STARLINK-4747,1 53832U 22114Q   23286.73516635  .00002134  00000-0  15212-3 0  9992,2 53832  53.2175 285.1588 0001614  95.5336 264.5840 15.08846340 60291,6917.861,95.437,540.843,538.609,0.0
53832.0,STARLINK-4747,PAYLOAD,2023-10-14 06:21:43,15.08855139,0.0001702,53.2159,282.7809,104.9048,255.2133,0.00026252,3.894e-05,0.0,0 STARLINK-4747,1 53832U 22114Q   23287.26508181  .00003894  00000-0  26252-3 0  9998,2 53832  53.2159 282.7809 0001702 104.9048 255.2133 15.08855139 60372,6917.834,95.437,540.877,538.522,0.0
53832.0,STARLINK-4747,PAYLOAD,2023-10-15 04:37:08,15.08829125,0.0001396,53.216,278.6161,102.8478,257.267,-0.00010772,-2.001e-05,0.0,0 STARLINK-4747,1 53832U 22114Q   23288.19245701 -.00002001  00000-0 -10772-3 0  9998,2 53832  53.2160 278.6161 0001396 102.8478 257.2670 15.08829125 59970,6917.914,95.438,540.744,538.813,0.0
53832.0,STARLINK-4747,PAYLOAD,2023-10-15 09:23:18,15.08830445,0.0001353,53.2165,277.725,100.9217,259.1927,-6.0887e-05,-1.257e-05,0.0,0 STARLINK-4747,1 53832U 22114Q   23288.39118237 -.00001257  00000-0 -60887-4 0  9998,2 53832  53.2165 277.7250 0001353 100.9217 259.1927 15.08830445 60545,6917.91,95.438,540.711,538.839,0.0
53832.0,STARLINK-4747,PAYLOAD,2023-10-16 06:03:17,15.08855815,0.0001279,53.2162,273.8608,95.0645,265.0493,0.00031124,4.671e-05,0.0,0 STARLINK-4747,1 53832U 22114Q   23289.25228607  .00004671  00000-0  31124-3 0  9999,2 53832  53.2162 273.8608 0001279  95.0645 265.0493 15.08855815 60139,6917.832,95.437,540.582,538.812,0.0
53832.0,STARLINK-4747,PAYLOAD,2023-10-16 21:57:08,15.08859473,0.0001195,53.2164,270.8874,91.1329,268.98,0.00054259,8.363e-05,0.0,0 STARLINK-4747,1 53832U 22114Q   23289.91468153  .00008363  00000-0  54259-3 0  9990,2 53832  53.2164 270.8874 0001195  91.1329 268.9800 15.08859473 60774,6917.821,95.436,540.513,538.859,0.0
53832.0,STARLINK-4747,PAYLOAD,2023-10-18 02:34:06,15.08843056,0.0001478,53.2186,265.538,97.7469,262.3691,0.00020816,3.027e-05,0.0,0 STARLINK-4747,1 53832U 22114Q   23291.10701448  .00003027  00000-0  20816-3 0  9995,2 53832  53.2186 265.5380 0001478  97.7469 262.3691 15.08843056 60958,6917.871,95.437,540.759,538.714,0.0
53832.0,STARLINK-4747,PAYLOAD,2023-10-18 05:44:52,15.08846014,0.0001502,53.2174,264.9446,96.8473,263.269,0.00020126,2.917e-05,0.0,0 STARLINK-4747,1 53832U 22114Q   23291.23949336  .00002917  00000-0  20126-3 0  9990,2 53832  53.2174 264.9446 0001502  96.8473 263.2690 15.08846014 60433,6917.862,95.437,540.766,538.688,0.0
53832.0,STARLINK-4747,PAYLOAD,2023-10-19 07:11:02,15.08851933,0.0001266,53.217,260.1811,79.1586,280.9549,0.00046619,7.142e-05,0.0,0 STARLINK-4747,1 53832U 22114Q   23292.29933189  .00007142  00000-0  46619-3 0  9996,2 53832  53.2170 260.1811 0001266  79.1586 280.9549 15.08851933 60591,6917.844,95.437,540.585,538.833,0.0
53832.0,STARLINK-4747,PAYLOAD,2023-10-19 21:29:30,15.08848902,0.0002059,53.2159,257.5122,64.7668,295.3537,0.00030403,4.555e-05,0.0,0 STARLINK-4747,1 53832U 22114Q   23292.89549491  .00004555  00000-0  30403-3 0  9990,2 53832  53.2159 257.5122 0002059  64.7668 295.3537 15.08848902 60684,6917.853,95.437,541.143,538.294,0.0
53832.0,STARLINK-4747,PAYLOAD,2023-10-20 07:01:48,15.08856364,0.0001522,53.2168,255.7212,101.6124,258.504,0.00036552,5.537e-05,0.0,0 STARLINK-4747,1 53832U 22114Q   23293.29292800  .00005537  00000-0  36552-3 0  9996,2 53832  53.2168 255.7212 0001522 101.6124 258.5040 15.08856364 61284,6917.83,95.437,540.748,538.642,0.0
53832.0,STARLINK-4747,PAYLOAD,2023-10-20 21:20:18,15.08835606,0.0001958,53.2165,253.0494,79.2464,280.8748,-1.8474e-05,-5.82e-06,0.0,0 STARLINK-4747,1 53832U 22114Q   23293.88909962 -.00000582  00000-0 -18474-4 0  9996,2 53832  53.2165 253.0494 0001958  79.2464 280.8748 15.08835606 61373,6917.894,95.438,541.113,538.404,0.0
53832.0,STARLINK-4747,PAYLOAD,2023-10-21 02:06:27,15.08833946,0.0001867,53.217,252.1523,103.7421,256.3779,-1.3513e-05,-5.03e-06,0.0,0 STARLINK-4747,1 53832U 22114Q   23294.08781888 -.00000503  00000-0 -13513-4 0  9996,2 53832  53.2170 252.1523 0001867 103.7421 256.3779 15.08833946 60867,6917.899,95.438,541.055,538.472,0.0
53832.0,STARLINK-4747,PAYLOAD,2023-10-21 03:41:50,15.08837438,0.0001909,53.2171,251.8546,105.0659,255.0545,2.203e-05,6.2e-07,0.0,0 STARLINK-4747,1 53832U 22114Q   23294.15405860  .00000062  00000-0  22030-4 0  9999,2 53832  53.2171 251.8546 0001909 105.0659 255.0545 15.08837438 61413,6917.888,95.438,541.074,538.433,0.0
53832.0,STARLINK-4747,PAYLOAD,2023-10-21 21:11:04,15.0885056,0.000147,53.2172,248.5844,97.0556,263.0604,0.00034658,5.234e-05,0.0,0 STARLINK-4747,1 53832U 22114Q   23294.88269610  .00005234  00000-0  34658-3 0  9994,2 53832  53.2172 248.5844 0001470  97.0556 263.0604 15.08850560 61525,6917.848,95.437,540.73,538.696,0.0
53832.0,STARLINK-4747,PAYLOAD,2023-10-22 03:32:37,15.08865361,0.0001555,53.2166,247.3959,89.2081,270.9089,0.0009511,0.00014892,0.0,0 STARLINK-4747,1 53832U 22114Q   23295.14765381  .00014892  00000-0  95110-3 0  9990,2 53832  53.2166 247.3959 0001555  89.2081 270.9089 15.08865361 61026,6917.803,95.436,540.744,538.592,0.0
53832.0,STARLINK-4747,PAYLOAD,2023-10-22 06:43:23,15.08871931,0.000153,53.2162,246.8,99.5731,260.5434,0.0010016,0.00015702,0.0,0 STARLINK-4747,1 53832U 22114Q   23295.28012986  .00015702  00000-0  10016-2 0  9993,2 53832  53.2162 246.8000 0001530  99.5731 260.5434 15.08871931 61582,6917.783,95.436,540.706,538.589,0.0
53832.0,STARLINK-4747,PAYLOAD,2023-10-23 03:23:24,15.08838374,0.0001499,53.2163,242.9363,102.6754,257.4406,0.00021455,3.128e-05,0.0,0 STARLINK-4747,1 53832U 22114Q   23296.14125821  .00003128  00000-0  21455-3 0  9991,2 53832  53.2163 242.9363 0001499 102.6754 257.4406 15.08838374 61170,6917.885,95.438,540.787,538.713,0.0
53832.0,STARLINK-4747,PAYLOAD,2023-10-24 12:46:30,15.0884739,0.000142,53.2161,236.6928,107.7832,252.3316,0.00049658,7.626e-05,0.0,0 STARLINK-4747,1 53832U 22114Q   23297.53230212  .00007626  00000-0  49658-3 0  9998,2 53832  53.2161 236.6928 0001420 107.7832 252.3316 15.08847390 61387,6917.858,95.437,540.705,538.74,0.0
53832.0,STARLINK-4747,PAYLOAD,2023-10-25 06:15:45,15.08845399,0.0001437,53.2163,233.4209,100.3886,259.7268,0.00026903,3.997e-05,0.0,0 STARLINK-4747,1 53832U 22114Q   23298.26094231  .00003997  00000-0  26903-3 0  9993,2 53832  53.2163 233.4209 0001437 100.3886 259.7268 15.08845399 61498,6917.864,95.437,540.723,538.735,0.0
53832.0,STARLINK-4747,PAYLOAD,2023-10-26 04:31:09,15.08849001,0.0001359,53.2159,229.2572,98.2182,261.8964,0.00021048,3.064e-05,0.0,0 STARLINK-4747,1 53832U 22114Q   23299.18830060  .00003064  00000-0  21048-3 0  9993,2 53832  53.2159 229.2572 0001359  98.2182 261.8964 15.08849001 62173,6917.853,95.437,540.658,538.778,0.0
53832.0,STARLINK-4747,PAYLOAD,2023-10-27 02:46:32,15.08857778,0.0001504,53.2165,225.0938,80.883,279.2332,0.00043072,6.577e-05,0.0,0 STARLINK-4747,1 53832U 22114Q   23300.11565631  .00006577  00000-0  43072-3 0  9991,2 53832  53.2165 225.0938 0001504  80.8830 279.2332 15.08857778 61776,6917.826,95.436,540.731,538.651,0.0
53832.0,STARLINK-4747,PAYLOAD,2023-10-27 12:18:51,15.08843408,0.0001647,53.2163,223.3097,78.9582,281.1595,9.5739e-05,1.236e-05,0.0,0 STARLINK-4747,1 53832U 22114Q   23300.51310030  .00001236  00000-0  95739-4 0  9991,2 53832  53.2163 223.3097 0001647  78.9582 281.1595 15.08843408 61836,6917.87,95.437,540.874,538.596,0.0
53832.0,STARLINK-4747,PAYLOAD,2023-10-28 01:01:57,15.08831575,0.000169,53.2169,220.928,85.2243,274.8942,-0.00013213,-2.39e-05,0.0,0 STARLINK-4747,1 53832U 22114Q   23301.04302644 -.00002390  00000-0 -13213-3 0  9992,2 53832  53.2169 220.9280 0001690  85.2243 274.8942 15.08831575 61918,6917.906,95.438,540.94,538.602,0.0
53832.0,STARLINK-4747,PAYLOAD,2023-10-28 12:09:39,15.08839426,0.000164,53.2166,218.8515,75.5389,284.5785,0.00012216,1.657e-05,0.0,0 STARLINK-4747,1 53832U 22114Q   23301.50670674  .00001657  00000-0  12216-3 0  9999,2 53832  53.2166 218.8515 0001640  75.5389 284.5785 15.08839426 62524,6917.882,95.438,540.882,538.613,0.0
